STARLINK-36240          
1 67076U 25298B   25362.50002315 -.01674390  00000+0 -16678-1 0  9996
2 67076  69.9991 205.2057 0003723 269.3849  83.7394 15.68525275  3517
STARLINK-36243          
1 67077U 25298C   25362.50002315 -.01669674  00000+0 -16635-1 0  9999
2 67077  69.9991 205.2030 0003713 270.1044  85.1131 15.68511354  3513
STARLINK-36236          
1 67078U 25298D   25362.50002315 -.01674565  00000+0 -16684-1 0  9999
2 67078  69.9989 205.2011 0003804 269.5713  87.4994 15.68518610  3510
STARLINK-36159          
1 67079U 25298E   25362.50002315 -.02349621  00000+0 -25266-1 0  9999
2 67079  69.9993 205.2036 0003900 266.5861  88.3822 15.66700372  3517
STARLINK-36158          
1 67080U 25298F   25362.50002315 -.01678805  00000+0 -16745-1 0  9991
2 67080  69.9991 205.1960 0003788 269.3279  91.8867 15.68499762  3451
STARLINK-35864          
1 67081U 25298G   25362.50002315 -.01670902  00000+0 -16661-1 0  9999
2 67081  69.9990 205.1940 0003697 269.0269  94.1289 15.68494385  3511
STARLINK-36035          
1 67082U 25298H   25362.50002315 -.01667488  00000+0 -16627-1 0  9997
2 67082  69.9990 205.1917 0003803 269.6459  95.5108 15.68486108  3511
STARLINK-36170          
1 67083U 25298J   25362.50002315 -.01671936  00000+0 -16680-1 0  9990
2 67083  69.9990 205.1887 0003749 269.9634  97.2140 15.68482788  3510
STARLINK-36166          
1 67084U 25298K   25362.50002315 -.01672351  00000+0 -16687-1 0  9990
2 67084  69.9990 205.1864 0003687 270.4835  98.6576 15.68479919  3450
STARLINK-35794          
1 67085U 25298L   25362.50002315 -.01670045  00000+0 -16663-1 0  9993
2 67085  69.9992 205.1841 0003761 270.3540 100.7370 15.68475795  3515
STARLINK-35841          
1 67086U 25298M   25362.50002315 -.01671219  00000+0 -16683-1 0  9990
2 67086  69.9989 205.1815 0003680 269.9333 103.2261 15.68467245  3515
STARLINK-35842          
1 67087U 25298N   25362.50002315 -.02460715  00000+0 -32623-1 0  9991
2 67087  69.9996 205.2402 0003764 264.7772  57.4064 15.61610782  3510
