CCSDS_OMM_VERS = 2.0
CREATION_DATE  = 
ORIGINATOR     = 

OBJECT_NAME    = STARLINK-36240
OBJECT_ID      = 2025-298B
CENTER_NAME    = EARTH
REF_FRAME      = TEME
TIME_SYSTEM    = UTC
MEAN_ELEMENT_THEORY = SGP/SGP4

EPOCH          = 2025-12-28T12:00:02.000160
MEAN_MOTION    = 15.68525275
ECCENTRICITY   = .0003723
INCLINATION    = 69.9991
RA_OF_ASC_NODE = 205.2057
ARG_OF_PERICENTER = 269.3849
MEAN_ANOMALY   = 83.7394

EPHEMERIS_TYPE = 0
CLASSIFICATION_TYPE = U
NORAD_CAT_ID   = 67076
ELEMENT_SET_NO = 999
REV_AT_EPOCH   = 351
BSTAR          = -.16678E-1
MEAN_MOTION_DOT = -.167439E-1
MEAN_MOTION_DDOT = 0

CCSDS_OMM_VERS = 2.0
CREATION_DATE  = 
ORIGINATOR     = 

OBJECT_NAME    = STARLINK-36243
OBJECT_ID      = 2025-298C
CENTER_NAME    = EARTH
REF_FRAME      = TEME
TIME_SYSTEM    = UTC
MEAN_ELEMENT_THEORY = SGP/SGP4

EPOCH          = 2025-12-28T12:00:02.000160
MEAN_MOTION    = 15.68511354
ECCENTRICITY   = .0003713
INCLINATION    = 69.9991
RA_OF_ASC_NODE = 205.2030
ARG_OF_PERICENTER = 270.1044
MEAN_ANOMALY   = 85.1131

EPHEMERIS_TYPE = 0
CLASSIFICATION_TYPE = U
NORAD_CAT_ID   = 67077
ELEMENT_SET_NO = 999
REV_AT_EPOCH   = 351
BSTAR          = -.16635E-1
MEAN_MOTION_DOT = -.1669674E-1
MEAN_MOTION_DDOT = 0

CCSDS_OMM_VERS = 2.0
CREATION_DATE  = 
ORIGINATOR     = 

OBJECT_NAME    = STARLINK-36236
OBJECT_ID      = 2025-298D
CENTER_NAME    = EARTH
REF_FRAME      = TEME
TIME_SYSTEM    = UTC
MEAN_ELEMENT_THEORY = SGP/SGP4

EPOCH          = 2025-12-28T12:00:02.000160
MEAN_MOTION    = 15.68518610
ECCENTRICITY   = .0003804
INCLINATION    = 69.9989
RA_OF_ASC_NODE = 205.2011
ARG_OF_PERICENTER = 269.5713
MEAN_ANOMALY   = 87.4994

EPHEMERIS_TYPE = 0
CLASSIFICATION_TYPE = U
NORAD_CAT_ID   = 67078
ELEMENT_SET_NO = 999
REV_AT_EPOCH   = 351
BSTAR          = -.16684E-1
MEAN_MOTION_DOT = -.1674565E-1
MEAN_MOTION_DDOT = 0

CCSDS_OMM_VERS = 2.0
CREATION_DATE  = 
ORIGINATOR     = 

OBJECT_NAME    = STARLINK-36159
OBJECT_ID      = 2025-298E
CENTER_NAME    = EARTH
REF_FRAME      = TEME
TIME_SYSTEM    = UTC
MEAN_ELEMENT_THEORY = SGP/SGP4

EPOCH          = 2025-12-28T12:00:02.000160
MEAN_MOTION    = 15.66700372
ECCENTRICITY   = .00039
INCLINATION    = 69.9993
RA_OF_ASC_NODE = 205.2036
ARG_OF_PERICENTER = 266.5861
MEAN_ANOMALY   = 88.3822

EPHEMERIS_TYPE = 0
CLASSIFICATION_TYPE = U
NORAD_CAT_ID   = 67079
ELEMENT_SET_NO = 999
REV_AT_EPOCH   = 351
BSTAR          = -.25266E-1
MEAN_MOTION_DOT = -.2349621E-1
MEAN_MOTION_DDOT = 0

CCSDS_OMM_VERS = 2.0
CREATION_DATE  = 
ORIGINATOR     = 

OBJECT_NAME    = STARLINK-36158
OBJECT_ID      = 2025-298F
CENTER_NAME    = EARTH
REF_FRAME      = TEME
TIME_SYSTEM    = UTC
MEAN_ELEMENT_THEORY = SGP/SGP4

EPOCH          = 2025-12-28T12:00:02.000160
MEAN_MOTION    = 15.68499762
ECCENTRICITY   = .0003788
INCLINATION    = 69.9991
RA_OF_ASC_NODE = 205.1960
ARG_OF_PERICENTER = 269.3279
MEAN_ANOMALY   = 91.8867

EPHEMERIS_TYPE = 0
CLASSIFICATION_TYPE = U
NORAD_CAT_ID   = 67080
ELEMENT_SET_NO = 999
REV_AT_EPOCH   = 345
BSTAR          = -.16745E-1
MEAN_MOTION_DOT = -.1678805E-1
MEAN_MOTION_DDOT = 0

CCSDS_OMM_VERS = 2.0
CREATION_DATE  = 
ORIGINATOR     = 

OBJECT_NAME    = STARLINK-35864
OBJECT_ID      = 2025-298G
CENTER_NAME    = EARTH
REF_FRAME      = TEME
TIME_SYSTEM    = UTC
MEAN_ELEMENT_THEORY = SGP/SGP4

EPOCH          = 2025-12-28T12:00:02.000160
MEAN_MOTION    = 15.68494385
ECCENTRICITY   = .0003697
INCLINATION    = 69.9990
RA_OF_ASC_NODE = 205.1940
ARG_OF_PERICENTER = 269.0269
MEAN_ANOMALY   = 94.1289

EPHEMERIS_TYPE = 0
CLASSIFICATION_TYPE = U
NORAD_CAT_ID   = 67081
ELEMENT_SET_NO = 999
REV_AT_EPOCH   = 351
BSTAR          = -.16661E-1
MEAN_MOTION_DOT = -.1670902E-1
MEAN_MOTION_DDOT = 0

CCSDS_OMM_VERS = 2.0
CREATION_DATE  = 
ORIGINATOR     = 

OBJECT_NAME    = STARLINK-36035
OBJECT_ID      = 2025-298H
CENTER_NAME    = EARTH
REF_FRAME      = TEME
TIME_SYSTEM    = UTC
MEAN_ELEMENT_THEORY = SGP/SGP4

EPOCH          = 2025-12-28T12:00:02.000160
MEAN_MOTION    = 15.68486108
ECCENTRICITY   = .0003803
INCLINATION    = 69.9990
RA_OF_ASC_NODE = 205.1917
ARG_OF_PERICENTER = 269.6459
MEAN_ANOMALY   = 95.5108

EPHEMERIS_TYPE = 0
CLASSIFICATION_TYPE = U
NORAD_CAT_ID   = 67082
ELEMENT_SET_NO = 999
REV_AT_EPOCH   = 351
BSTAR          = -.16627E-1
MEAN_MOTION_DOT = -.1667488E-1
MEAN_MOTION_DDOT = 0

CCSDS_OMM_VERS = 2.0
CREATION_DATE  = 
ORIGINATOR     = 

OBJECT_NAME    = STARLINK-36170
OBJECT_ID      = 2025-298J
CENTER_NAME    = EARTH
REF_FRAME      = TEME
TIME_SYSTEM    = UTC
MEAN_ELEMENT_THEORY = SGP/SGP4

EPOCH          = 2025-12-28T12:00:02.000160
MEAN_MOTION    = 15.68482788
ECCENTRICITY   = .0003749
INCLINATION    = 69.9990
RA_OF_ASC_NODE = 205.1887
ARG_OF_PERICENTER = 269.9634
MEAN_ANOMALY   = 97.2140

EPHEMERIS_TYPE = 0
CLASSIFICATION_TYPE = U
NORAD_CAT_ID   = 67083
ELEMENT_SET_NO = 999
REV_AT_EPOCH   = 351
BSTAR          = -.1668E-1
MEAN_MOTION_DOT = -.1671936E-1
MEAN_MOTION_DDOT = 0

CCSDS_OMM_VERS = 2.0
CREATION_DATE  = 
ORIGINATOR     = 

OBJECT_NAME    = STARLINK-36166
OBJECT_ID      = 2025-298K
CENTER_NAME    = EARTH
REF_FRAME      = TEME
TIME_SYSTEM    = UTC
MEAN_ELEMENT_THEORY = SGP/SGP4

EPOCH          = 2025-12-28T12:00:02.000160
MEAN_MOTION    = 15.68479919
ECCENTRICITY   = .0003687
INCLINATION    = 69.9990
RA_OF_ASC_NODE = 205.1864
ARG_OF_PERICENTER = 270.4835
MEAN_ANOMALY   = 98.6576

EPHEMERIS_TYPE = 0
CLASSIFICATION_TYPE = U
NORAD_CAT_ID   = 67084
ELEMENT_SET_NO = 999
REV_AT_EPOCH   = 345
BSTAR          = -.16687E-1
MEAN_MOTION_DOT = -.1672351E-1
MEAN_MOTION_DDOT = 0

CCSDS_OMM_VERS = 2.0
CREATION_DATE  = 
ORIGINATOR     = 

OBJECT_NAME    = STARLINK-35794
OBJECT_ID      = 2025-298L
CENTER_NAME    = EARTH
REF_FRAME      = TEME
TIME_SYSTEM    = UTC
MEAN_ELEMENT_THEORY = SGP/SGP4

EPOCH          = 2025-12-28T12:00:02.000160
MEAN_MOTION    = 15.68475795
ECCENTRICITY   = .0003761
INCLINATION    = 69.9992
RA_OF_ASC_NODE = 205.1841
ARG_OF_PERICENTER = 270.3540
MEAN_ANOMALY   = 100.7370

EPHEMERIS_TYPE = 0
CLASSIFICATION_TYPE = U
NORAD_CAT_ID   = 67085
ELEMENT_SET_NO = 999
REV_AT_EPOCH   = 351
BSTAR          = -.16663E-1
MEAN_MOTION_DOT = -.1670045E-1
MEAN_MOTION_DDOT = 0

CCSDS_OMM_VERS = 2.0
CREATION_DATE  = 
ORIGINATOR     = 

OBJECT_NAME    = STARLINK-35841
OBJECT_ID      = 2025-298M
CENTER_NAME    = EARTH
REF_FRAME      = TEME
TIME_SYSTEM    = UTC
MEAN_ELEMENT_THEORY = SGP/SGP4

EPOCH          = 2025-12-28T12:00:02.000160
MEAN_MOTION    = 15.68467245
ECCENTRICITY   = .000368
INCLINATION    = 69.9989
RA_OF_ASC_NODE = 205.1815
ARG_OF_PERICENTER = 269.9333
MEAN_ANOMALY   = 103.2261

EPHEMERIS_TYPE = 0
CLASSIFICATION_TYPE = U
NORAD_CAT_ID   = 67086
ELEMENT_SET_NO = 999
REV_AT_EPOCH   = 351
BSTAR          = -.16683E-1
MEAN_MOTION_DOT = -.1671219E-1
MEAN_MOTION_DDOT = 0

CCSDS_OMM_VERS = 2.0
CREATION_DATE  = 
ORIGINATOR     = 

OBJECT_NAME    = STARLINK-35842
OBJECT_ID      = 2025-298N
CENTER_NAME    = EARTH
REF_FRAME      = TEME
TIME_SYSTEM    = UTC
MEAN_ELEMENT_THEORY = SGP/SGP4

EPOCH          = 2025-12-28T12:00:02.000160
MEAN_MOTION    = 15.61610782
ECCENTRICITY   = .0003764
INCLINATION    = 69.9996
RA_OF_ASC_NODE = 205.2402
ARG_OF_PERICENTER = 264.7772
MEAN_ANOMALY   = 57.4064

EPHEMERIS_TYPE = 0
CLASSIFICATION_TYPE = U
NORAD_CAT_ID   = 67087
ELEMENT_SET_NO = 999
REV_AT_EPOCH   = 351
BSTAR          = -.32623E-1
MEAN_MOTION_DOT = -.2460715E-1
MEAN_MOTION_DDOT = 0

